{
  "norad_id": 66286,
  "name": "STARLINK-35783",
  "history": [
    {
      "epoch": "2026-03-28T18:13:22.852128Z",
      "apogee_km": 476.07441131194537,
      "perigee_km": 474.28706604569743,
      "latitude_deg": -1.2776014032641849e-05,
      "longitude_deg": 3.315744798590094,
      "height_km": 476.0891655985063,
      "semi_major_axis_km": 6853.317738678821,
      "eccentricity": 0.0001304,
      "inclination_deg": 53.161,
      "raan_deg": 102.8361,
      "arg_perigee_deg": 90.6594,
      "mean_anomaly_deg": 269.4556,
      "mean_motion_rev_day": 15.30211498
    },
    {
      "epoch": "2026-03-29T05:11:45.060000Z",
      "apogee_km": 475.5989564124611,
      "perigee_km": 474.7724456947153,
      "latitude_deg": -3.92817037852722e-05,
      "longitude_deg": -163.8512460737891,
      "height_km": 476.2931329399135,
      "semi_major_axis_km": 6853.322701053588,
      "eccentricity": 6.03e-05,
      "inclination_deg": 53.1616,
      "raan_deg": 100.7123,
      "arg_perigee_deg": 120.2506,
      "mean_anomaly_deg": 239.8554,
      "mean_motion_rev_day": 15.30209836
    }
  ]
}